{"type": "FeatureCollection", "features": [{"type": "Feature", "id": "45017", "properties": {"name": "Calhoun"}, "geometry": {"type": "Polygon", "coordinates": [[[-81.01245293902939, 33.880377296162955], [-80.98732788107881, 33.84859208761087], [-80.91554200122, 33.8133706402964], [-80.8796490612906, 33.81594781936819], [-80.82939894538946, 33.77814919298192], [-80.7612023595236, 33.77385389452894], [-80.68582718567185, 33.75581364102641], [-80.66070212772128, 33.77299483483834], [-80.62121989379894, 33.74292774566745], [-80.61404130581306, 33.71200159680596], [-80.53507683796838, 33.64413588124881], [-80.54225542595425, 33.62867280681806], [-80.50277319203192, 33.591733240122394], [-80.49559460404603, 33.55822991218912], [-80.5099517800178, 33.538471539305384], [-80.55302330793307, 33.56510238971389], [-80.61045201182012, 33.55049837497374], [-80.58891624786247, 33.538471539305384], [-80.62480918779187, 33.498954793537926], [-80.61045201182012, 33.47060582374823], [-80.66070212772128, 33.47060582374823], [-80.69300577365773, 33.522149405184045], [-80.80786318143181, 33.60376007579075], [-80.88682764927648, 33.618364090530896], [-80.9406670591706, 33.60891443393433], [-80.94425635316352, 33.64327682155821], [-80.96579211712117, 33.625236568055676], [-81.04116729097291, 33.706847238662384], [-80.92630988319883, 33.756672700717004], [-80.96579211712117, 33.777290133291324], [-81.01245293902939, 33.78158543174431], [-81.03757799697996, 33.745504924739244], [-81.0591137609376, 33.74722304412044], [-81.03757799697996, 33.87092763956639], [-81.01245293902939, 33.880377296162955]]]}}, {"type": "Feature", "id": "45075", "properties": {"name": "Orangeburg"}, "geometry": {"type": "Polygon", "coordinates": [[[-81.37138233832339, 33.49036419663196], [-81.18832834468344, 33.652726478154776], [-81.08782811288113, 33.69567946268462], [-81.04116729097291, 33.706847238662384], [-80.96579211712117, 33.625236568055676], [-80.94425635316352, 33.64327682155821], [-80.9406670591706, 33.60891443393433], [-80.88682764927648, 33.618364090530896], [-80.80786318143181, 33.60376007579075], [-80.69300577365773, 33.522149405184045], [-80.66070212772128, 33.47060582374823], [-80.61045201182012, 33.47060582374823], [-80.62480918779187, 33.498954793537926], [-80.58891624786247, 33.538471539305384], [-80.61045201182012, 33.55049837497374], [-80.55302330793307, 33.56510238971389], [-80.5099517800178, 33.538471539305384], [-80.49559460404603, 33.55822991218912], [-80.44893378213781, 33.52472658425584], [-80.43457660616606, 33.47747830127301], [-80.35561213832138, 33.430230018290175], [-80.2766476704767, 33.44655215241152], [-80.2228082605826, 33.44397497333973], [-80.25511190651906, 33.299652945319444], [-80.3125406104061, 33.264431498004974], [-80.34484425634255, 33.27817645305453], [-80.36279072630727, 33.2575590204802], [-80.42739801818018, 33.2575590204802], [-80.48482672206721, 33.279894572435715], [-80.50277319203192, 33.33487439263392], [-80.78991671146711, 33.18110270801707], [-80.79709529945299, 33.17680740956409], [-80.83657753337533, 33.20343825997259], [-80.84734541535416, 33.23865970728707], [-80.9406670591706, 33.30394824377243], [-81.08064952489525, 33.375250198091976], [-81.18832834468344, 33.41133070509704], [-81.22422128461284, 33.43967967488674], [-81.30318575245752, 33.48091454003539], [-81.37138233832339, 33.49036419663196]]]}}]}